0 COSMOS 2251 DEB
1 34389U 93036QE  13282.06742547  .00000495  00000-0  18670-3 0  2366
2 34389 074.0225 148.1661 0033387 249.7099 269.6399 14.33693823241496
0 COSMOS 2251 DEB
1 34389U 93036QE  13283.11579747  .00000511  00000-0  19257-3 0  2375
2 34389 074.0223 146.2471 0033355 247.5631 280.5776 14.33694945241649
0 COSMOS 2251 DEB
1 34389U 93036QE  13286.04522200  .00000542  00000-0  20345-3 0  2398
2 34389 074.0217 140.8851 0033280 241.6519 280.0797 14.33697735242066
0 COSMOS 2251 DEB
1 34389U 93036QE  13287.77412432  .00000680  00000-0  25309-3 0  2404
2 34389 074.0215 137.7203 0033252 238.1760 203.3857 14.33700403242318
0 COSMOS 2251 DEB
1 34389U 93036QE  13289.04575647  .00000692  00000-0  25728-3 0  2413
2 34389 074.0214 135.3925 0033230 235.6157 286.6183 14.33702932242494
0 COSMOS 2251 DEB
1 34389U 93036QE  13290.70281987  .00000689  00000-0  25633-3 0  2421
2 34389 074.0215 132.3591 0033160 232.2392 199.2193 14.33705431242720
0 COSMOS 2251 DEB
1 34389U 93036QE  13291.89619649  .00000730  00000-0  27098-3 0  2437
2 34389 074.0216 130.1746 0033116 229.8506 238.5635 14.33706382242903
0 COSMOS 2251 DEB
1 34389U 93036QE  13293.01600362  .00000819  00000-0  30257-3 0  2445
2 34389 074.0217 128.1249 0033073 227.5491 258.2615 14.33707911243063
0 COSMOS 2251 DEB
1 34389U 93036QE  13294.53291949  .00000823  00000-0  30401-3 0  2457
2 34389 074.0217 125.3481 0033017 224.4596 167.5479 14.33711080243275
0 COSMOS 2251 DEB
1 34389U 93036QE  13295.87350546  .00000957  00000-0  35224-3 0  2461
2 34389 074.0218 122.8942 0032971 221.7584 246.7259 14.33713024243473
